ONEWEB-0645             
1 55809U 23029P   25106.54430148  .00000052  00000+0  97284-4 0  9996
2 55809  87.9258  29.7918 0002027  67.5619 292.5728 13.19728860102631
ONEWEB-0646             
1 55810U 23029Q   25106.49846894  .00000135  00000+0  30613-3 0  9995
2 55810  87.9260  29.7948 0001685  75.2868 284.8451 13.19723052102613
ONEWEB-0648             
1 55811U 23029R   25106.47220120 -.00000039  00000+0 -13921-3 0  9990
2 55811  87.9091  14.5768 0001822  47.2607 312.8676 13.14503164103337
ONEWEB-0649             
1 55812U 23029S   25106.53718100 -.00000025  00000+0 -94920-4 0  9992
2 55812  87.9257  29.7781 0001825  64.3803 295.7518 13.19724416102654
ONEWEB-0650             
1 55813U 23029T   25106.30499268  .00000048  00000+0  87359-4 0  9990
2 55813  87.9260  29.8318 0001781  71.6209 288.5117 13.19724822102597
ONEWEB-0652             
1 55814U 23029U   25106.45316290 -.00000126  00000+0 -37492-3 0  9991
2 55814  87.9096  14.5910 0001915  82.8772 277.2576 13.14504464103309
ONEWEB-0653             
1 55815U 23029V   25106.43731511  .00000140  00000+0  34351-3 0  9992
2 55815  87.9097  14.5821 0002091  78.4789 281.6576 13.14501279103330
ONEWEB-0654             
1 55816U 23029W   25106.50867456  .00000197  00000+0  49624-3 0  9990
2 55816  87.9094  14.5699 0002179  87.3490 272.7889 13.14501714103361
